[{"OBJECT_NAME":"STARLINK-3532","OBJECT_ID":"2022-016P","EPOCH":"2026-03-09T23:24:04.221504","MEAN_MOTION":15.0883683,"ECCENTRICITY":0.00013734,"INCLINATION":53.2188,"RA_OF_ASC_NODE":327.8415,"ARG_OF_PERICENTER":83.1131,"MEAN_ANOMALY":277.0017,"EPHEMERIS_TYPE":0,"CLASSIFICATION_TYPE":"U","NORAD_CAT_ID":51727,"ELEMENT_SET_NO":999,"REV_AT_EPOCH":22346,"BSTAR":7.9535108e-5,"MEAN_MOTION_DOT":9.78e-6,"MEAN_MOTION_DDOT":0},{"OBJECT_NAME":"CSC-1","OBJECT_ID":"2023-155G","EPOCH":"2026-03-09T17:46:02.342496","MEAN_MOTION":15.1003596,"ECCENTRICITY":0.00075041,"INCLINATION":97.5446,"RA_OF_ASC_NODE":139.7305,"ARG_OF_PERICENTER":212.9992,"MEAN_ANOMALY":147.077,"EPHEMERIS_TYPE":0,"CLASSIFICATION_TYPE":"U","NORAD_CAT_ID":58022,"ELEMENT_SET_NO":999,"REV_AT_EPOCH":13272,"BSTAR":0.00054556609,"MEAN_MOTION_DOT":8.819e-5,"MEAN_MOTION_DDOT":0}]
